[{"OBJECT_NAME":"POLYITAN-1","OBJECT_ID":"2014-033AJ","EPOCH":"2026-03-09T22:27:50.258304","MEAN_MOTION":15.29568085,"ECCENTRICITY":0.00093607,"INCLINATION":98.1053,"RA_OF_ASC_NODE":86.0432,"ARG_OF_PERICENTER":127.248,"MEAN_ANOMALY":232.9614,"EPHEMERIS_TYPE":0,"CLASSIFICATION_TYPE":"U","NORAD_CAT_ID":40042,"ELEMENT_SET_NO":999,"REV_AT_EPOCH":63840,"BSTAR":0.00083772474,"MEAN_MOTION_DOT":0.00024003,"MEAN_MOTION_DDOT":0},{"OBJECT_NAME":"STARLINK-36555","OBJECT_ID":"2026-012E","EPOCH":"2026-03-08T17:41:25.157472","MEAN_MOTION":15.27597001,"ECCENTRICITY":6.75e-5,"INCLINATION":42.9956,"RA_OF_ASC_NODE":320.0039,"ARG_OF_PERICENTER":70.5265,"MEAN_ANOMALY":289.566,"EPHEMERIS_TYPE":0,"CLASSIFICATION_TYPE":"U","NORAD_CAT_ID":67497,"ELEMENT_SET_NO":999,"REV_AT_EPOCH":761,"BSTAR":0.0013564559,"MEAN_MOTION_DOT":0.00037273,"MEAN_MOTION_DDOT":0}]
